[{"OBJECT_ID":"1990-063D","OBJECT_NAME":"ARIANE 44L DEB (SPELDA)","NORAD_CAT_ID":"20718","OBJECT_TYPE":"DEBRIS","PERIOD":"392.689","INCLINATION":"5.2737","ECCENTRICITY":"0.62148560","MEAN_MOTION":"3.66702211","TLE_LINE1":"1 20718U 90063D   21272.39598541  .00005272  00000-0  31922-2 0  9999","TLE_LINE2":"2 20718   5.2737  41.2685 6214856 186.2459 159.2755  3.66702211356867"},{"OBJECT_ID":"1965-108AE","OBJECT_NAME":"TITAN 3C TRANSTAGE DEB","NORAD_CAT_ID":"20760","OBJECT_TYPE":"DEBRIS","PERIOD":"510.043","INCLINATION":"27.3971","ECCENTRICITY":"0.67079190","MEAN_MOTION":"2.82329085","TLE_LINE1":"1 20760U 65108AE  21270.51463882 -.00000145  00000-0 -32148-3 0  9997","TLE_LINE2":"2 20760  27.3971  13.0997 6707919 105.2670 359.2223  2.82329085279738"},{"OBJECT_ID":"1990-065C","OBJECT_NAME":"CRRES DEB (CANISTER)","NORAD_CAT_ID":"20811","OBJECT_TYPE":"DEBRIS","PERIOD":"544.353","INCLINATION":"18.1621","ECCENTRICITY":"0.69599460","MEAN_MOTION":"2.64534229","TLE_LINE1":"1 20811U 90065C   21268.45252595 -.00000006  00000-0  36129-3 0  9999","TLE_LINE2":"2 20811  18.1621 340.3387 6959946 276.3296  15.0903  2.64534229 75304"},{"OBJECT_ID":"1990-065D","OBJECT_NAME":"CRRES DEB (CANISTER)","NORAD_CAT_ID":"21588","OBJECT_TYPE":"DEBRIS","PERIOD":"569.785","INCLINATION":"18.1274","ECCENTRICITY":"0.70212000","MEAN_MOTION":"2.52726733","TLE_LINE1":"1 21588U 90065D   21267.08897302 -.00000128  00000-0  29255-3 0  9997","TLE_LINE2":"2 21588  18.1274 209.0858 7021200 173.8027 205.0408  2.52726733266999"},{"OBJECT_ID":"1990-065E","OBJECT_NAME":"CRRES DEB (CANISTER)","NORAD_CAT_ID":"21589","OBJECT_TYPE":"DEBRIS","PERIOD":"549.308","INCLINATION":"18.2208","ECCENTRICITY":"0.69706440","MEAN_MOTION":"2.62148134","TLE_LINE1":"1 21589U 90065E   21268.63218280  .00000009  00000-0  43093-3 0  9995","TLE_LINE2":"2 21589  18.2208 345.6532 6970644 262.9754  19.9895  2.62148134 85563"},{"OBJECT_ID":"1990-065G","OBJECT_NAME":"CRRES DEB (CANISTER)","NORAD_CAT_ID":"21591","OBJECT_TYPE":"DEBRIS","PERIOD":"597.642","INCLINATION":"18.6282","ECCENTRICITY":"0.70317470","MEAN_MOTION":"2.40946943","TLE_LINE1":"1 21591U 90065G   21271.19534782 -.00000166  00000-0  79409-4 0  9997","TLE_LINE2":"2 21591  18.6282 296.0388 7031747  45.0326   0.4187  2.40946943243563"},{"OBJECT_ID":"1990-065H","OBJECT_NAME":"CRRES DEB (CANISTER) *","NORAD_CAT_ID":"21592","OBJECT_TYPE":"DEBRIS","PERIOD":"502.629","INCLINATION":"18.2398","ECCENTRICITY":"0.66841580","MEAN_MOTION":"2.86493506","TLE_LINE1":"1 21592U 90065H   21268.95859783 -.00000139  00000-0 -13960-3 0  9999","TLE_LINE2":"2 21592  18.2398 104.0857 6684158 264.7451  21.8954  2.86493506292313"},{"OBJECT_ID":"1990-065K","OBJECT_NAME":"CRRES DEB (CANISTER)","NORAD_CAT_ID":"21594","OBJECT_TYPE":"DEBRIS","PERIOD":"589.206","INCLINATION":"17.3288","ECCENTRICITY":"0.70522550","MEAN_MOTION":"2.44396869","TLE_LINE1":"1 21594U 90065K   21270.92594121 -.00000273  00000-0 -22896-3 0  9990","TLE_LINE2":"2 21594  17.3288  50.5233 7052255 259.7748  20.8360  2.44396869265438"},{"OBJECT_ID":"1987-036L","OBJECT_NAME":"SL-12 DEB *","NORAD_CAT_ID":"21623","OBJECT_TYPE":"DEBRIS","PERIOD":"162.486","INCLINATION":"62.7303","ECCENTRICITY":"0.30430800","MEAN_MOTION":"8.86231129","TLE_LINE1":"1 21623U 87036L   21262.14866542  .00000389  00000-0  25019-3 0  9997","TLE_LINE2":"2 21623  62.7303 180.6105 3043080 242.1469  83.9309  8.86231129960494"},{"OBJECT_ID":"1990-065L","OBJECT_NAME":"CRRES DEB (CANISTER)","NORAD_CAT_ID":"21634","OBJECT_TYPE":"DEBRIS","PERIOD":"545.961","INCLINATION":"18.1843","ECCENTRICITY":"0.69695040","MEAN_MOTION":"2.63754887","TLE_LINE1":"1 21634U 90065L   21271.43856715  .00000649  00000-0  61684-3 0  9995","TLE_LINE2":"2 21634  18.1843 356.6807 6969504 242.4293  32.3021  2.63754887272454"},{"OBJECT_ID":"1990-065M","OBJECT_NAME":"CRRES DEB (CANISTER)","NORAD_CAT_ID":"21635","OBJECT_TYPE":"DEBRIS","PERIOD":"536.172","INCLINATION":"18.0995","ECCENTRICITY":"0.69342540","MEAN_MOTION":"2.68570544","TLE_LINE1":"1 21635U 90065M   21272.09689280  .00000345  00000-0  41330-3 0  9999","TLE_LINE2":"2 21635  18.0995 287.5378 6934254 357.3297   0.4088  2.68570544286591"},{"OBJECT_ID":"1990-065N","OBJECT_NAME":"CRRES DEB (CANISTER)","NORAD_CAT_ID":"21636","OBJECT_TYPE":"DEBRIS","PERIOD":"615.649","INCLINATION":"17.7985","ECCENTRICITY":"0.71452390","MEAN_MOTION":"2.33899540","TLE_LINE1":"1 21636U 90065N   21267.12254189 -.00000071  00000-0  19950-3 0  9994","TLE_LINE2":"2 21636  17.7985 279.8703 7145239 139.4386 304.9585  2.33899540 80531"},{"OBJECT_ID":"1990-065P","OBJECT_NAME":"CRRES DEB (CANISTER)","NORAD_CAT_ID":"21637","OBJECT_TYPE":"DEBRIS","PERIOD":"539.658","INCLINATION":"17.7584","ECCENTRICITY":"0.69353650","MEAN_MOTION":"2.66835699","TLE_LINE1":"1 21637U 90065P   21272.01313161  .00000083  00000-0  38352-3 0  9994","TLE_LINE2":"2 21637  17.7584 239.6752 6935365  93.1628 341.3834  2.66835699277289"},{"OBJECT_ID":"1963-014FG","OBJECT_NAME":"WESTFORD NEEDLES","NORAD_CAT_ID":"21660","OBJECT_TYPE":"DEBRIS","PERIOD":"164.070","INCLINATION":"86.5431","ECCENTRICITY":"0.14946770","MEAN_MOTION":"8.77675905","TLE_LINE1":"1 21660U 63014FG  21272.42559215  .00000104  00000-0  12677-1 0  9995","TLE_LINE2":"2 21660  86.5431 129.0229 1494677 126.1140 353.1981  8.77675905916798"},{"OBJECT_ID":"1965-108AF","OBJECT_NAME":"TITAN 3C TRANSTAGE DEB","NORAD_CAT_ID":"21692","OBJECT_TYPE":"DEBRIS","PERIOD":"408.659","INCLINATION":"28.1381","ECCENTRICITY":"0.61696220","MEAN_MOTION":"3.52371649","TLE_LINE1":"1 21692U 65108AF  21254.06550866 -.00000428  00000-0 -27423-2 0  9996","TLE_LINE2":"2 21692  28.1381 127.6931 6169622 244.2100 342.1922  3.52371649102645"},{"OBJECT_ID":"1990-065Q","OBJECT_NAME":"CRRES DEB (CANISTER)","NORAD_CAT_ID":"21777","OBJECT_TYPE":"DEBRIS","PERIOD":"600.448","INCLINATION":"18.3771","ECCENTRICITY":"0.69430940","MEAN_MOTION":"2.39820822","TLE_LINE1":"1 21777U 90065Q   21269.28116280 -.00000176  00000-0 -34659-3 0  9998","TLE_LINE2":"2 21777  18.3771 153.9600 6943094   5.5285  28.4768  2.39820822241331"},{"OBJECT_ID":"1990-065R","OBJECT_NAME":"CRRES DEB (CANISTER)","NORAD_CAT_ID":"21778","OBJECT_TYPE":"DEBRIS","PERIOD":"569.311","INCLINATION":"17.7924","ECCENTRICITY":"0.70391200","MEAN_MOTION":"2.52937166","TLE_LINE1":"1 21778U 90065R   21272.16832452  .00000158  00000-0  26852-3 0  9990","TLE_LINE2":"2 21778  17.7924 230.0733 7039120 164.4484 240.1565  2.52937166269065"},{"OBJECT_ID":"1991-084D","OBJECT_NAME":"ARIANE 44L DEB (SPELDA)","NORAD_CAT_ID":"21818","OBJECT_TYPE":"DEBRIS","PERIOD":"425.008","INCLINATION":"3.6511","ECCENTRICITY":"0.64374800","MEAN_MOTION":"3.38817542","TLE_LINE1":"1 21818U 91084D   21271.34221274  .00006874  00000-0  22591-2 0  9996","TLE_LINE2":"2 21818   3.6511 226.5329 6437480 131.3159 304.9984  3.38817542299190"},{"OBJECT_ID":"1983-127M","OBJECT_NAME":"SL-12 DEB","NORAD_CAT_ID":"21935","OBJECT_TYPE":"DEBRIS","PERIOD":"241.017","INCLINATION":"52.2409","ECCENTRICITY":"0.45361650","MEAN_MOTION":"5.97468435","TLE_LINE1":"1 21935U 83127M   21272.03406020 -.00003689  00000-0 -12617-1 0  9996","TLE_LINE2":"2 21935  52.2409 291.2011 4536165 103.9742 309.0950  5.97468435547043"},{"OBJECT_ID":"1992-021D","OBJECT_NAME":"ARIANE 44L+ DEB (SPELDA)","NORAD_CAT_ID":"21942","OBJECT_TYPE":"DEBRIS","PERIOD":"374.885","INCLINATION":"4.4112","ECCENTRICITY":"0.61175530","MEAN_MOTION":"3.84118174","TLE_LINE1":"1 21942U 92021D   21272.19651794  .00008502  00000-0  29031-2 0  9990","TLE_LINE2":"2 21942   4.4112 332.2361 6117553 183.1230 169.5968  3.84118174330027"},{"OBJECT_ID":"1990-065S","OBJECT_NAME":"CRRES DEB (CANISTER)","NORAD_CAT_ID":"21948","OBJECT_TYPE":"DEBRIS","PERIOD":"407.821","INCLINATION":"17.4984","ECCENTRICITY":"0.63551870","MEAN_MOTION":"3.53095883","TLE_LINE1":"1 21948U 90065S   21268.20362940  .00003868  00000-0  68386-3 0  9998","TLE_LINE2":"2 21948  17.4984 200.2805 6355187  47.3069 351.0168  3.53095883300854"},{"OBJECT_ID":"1988-063G","OBJECT_NAME":"ARIANE 3 DEB","NORAD_CAT_ID":"22101","OBJECT_TYPE":"DEBRIS","PERIOD":"227.079","INCLINATION":"7.8012","ECCENTRICITY":"0.44730200","MEAN_MOTION":"6.34140874","TLE_LINE1":"1 22101U 88063G   21271.30988724  .00008009  00000-0  54077-2 0  9997","TLE_LINE2":"2 22101   7.8012 227.7639 4473020 351.6210   2.8388  6.34140874224228"},{"OBJECT_ID":"1988-077D","OBJECT_NAME":"TITAN 34D TRANSTAGE DEB","NORAD_CAT_ID":"22668","OBJECT_TYPE":"DEBRIS","PERIOD":"676.344","INCLINATION":"27.2874","ECCENTRICITY":"0.73524910","MEAN_MOTION":"2.12909315","TLE_LINE1":"1 22668U 88077D   21271.39143842  .00000464  00000-0  15912-2 0  9995","TLE_LINE2":"2 22668  27.2874  33.5067 7352491 165.7161 240.3308  2.12909315 18177"},{"OBJECT_ID":"1988-077E","OBJECT_NAME":"TITAN 34D TRANSTAGE DEB","NORAD_CAT_ID":"22669","OBJECT_TYPE":"DEBRIS","PERIOD":"685.047","INCLINATION":"27.0807","ECCENTRICITY":"0.73643220","MEAN_MOTION":"2.10204701","TLE_LINE1":"1 22669U 88077E   21271.11253855  .00000140  00000-0  91841-3 0  9999","TLE_LINE2":"2 22669  27.0807  50.1878 7364322 146.1117 297.2679  2.10204701 17735"},{"OBJECT_ID":"1992-072C","OBJECT_NAME":"ARIANE 42P+ DEB","NORAD_CAT_ID":"22670","OBJECT_TYPE":"DEBRIS","PERIOD":"391.529","INCLINATION":"6.6272","ECCENTRICITY":"0.62618620","MEAN_MOTION":"3.67789160","TLE_LINE1":"1 22670U 92072C   21272.09626936  .00011174  00000-0  14251-2 0  9991","TLE_LINE2":"2 22670   6.6272 225.7456 6261862 336.3458   4.2752  3.67789160695216"},{"OBJECT_ID":"1988-077F","OBJECT_NAME":"TITAN 34D TRANSTAGE DEB","NORAD_CAT_ID":"22818","OBJECT_TYPE":"DEBRIS","PERIOD":"578.236","INCLINATION":"26.5966","ECCENTRICITY":"0.70700130","MEAN_MOTION":"2.49033097","TLE_LINE1":"1 22818U 88077F   21270.77089219  .00001701  00000-0  22171-2 0  9990","TLE_LINE2":"2 22818  26.5966 173.9304 7070013  59.3263 351.5156  2.49033097 20421"}]